STARLINK-32493          
1 62025U 24213T   26155.11753999  .00024593  00000+0  73647-3 0  9992
2 62025  53.1601 126.2304 0001544 100.6053 259.5124 15.34405967 86398
STARLINK-32561          
1 62026U 24213U   26154.24074397  .00025044  00000+0  85442-3 0  9992
2 62026  53.1568 130.7097 0001421 137.4561 222.6550 15.30215885 86259
STARLINK-32512          
1 62027U 24213V   26155.07400786  .00023587  00000+0  80564-3 0  9990
2 62027  53.1581 126.6652 0001477 117.9506 242.1644 15.30212863 86387
GSAT-N2 (GSAT-20)       
1 62028U 24214A   26155.15082792 -.00000009  00000+0  00000+0 0  9992
2 62028   0.0214 233.6910 0002199 204.1002 297.1527  1.00275053  5765
STARLINK-32637          
1 62032U 24216A   26152.34149817  .00018912  00000+0  69488-3 0  9999
2 62032  43.0012 143.5113 0001970 270.5434  89.5192 15.27585484 86675
STARLINK-32582          
1 62033U 24216B   26153.94706597  .00018229  00000+0  67007-3 0  9997
2 62033  43.0014 141.8463 0001902 192.7573 167.3231 15.27592133 86837
STARLINK-32615          
1 62034U 24216C   26152.38003233  .00016820  00000+0  61874-3 0  9993
2 62034  43.0016 143.8025 0001869 282.7746  77.2896 15.27613092 85518
STARLINK-32592          
1 62035U 24216D   26154.82278742  .00025122  00000+0  91777-3 0  9994
2 62035  43.0001 137.2345 0002040 248.0658 111.9977 15.27635119 86975
STARLINK-32225          
1 62036U 24216E   26152.38389611  .00016191  00000+0  59602-3 0  9999
2 62036  43.0021 143.8354 0002557 291.0028  69.0550 15.27611408 86743
STARLINK-32595          
1 62037U 24216F   26154.41892295  .00022552  00000+0  82592-3 0  9995
2 62037  43.0028 139.3653 0002684 262.0142  98.0405 15.27603390 86910
STARLINK-32477          
1 62038U 24216G   26155.16670139  .00597098  00000+0  49990-2 0  9996
2 62038  42.9872 103.2031 0024289 169.4085 237.6938 15.67053595  5932
STARLINK-32480          
1 62039U 24216H   26152.05953762  .00020683  00000+0  75867-3 0  9992
2 62039  42.9986 145.6904 0001138 239.7479 120.3260 15.27595358 85460
STARLINK-32510          
1 62040U 24216J   26154.11767438  .00020845  00000+0  76416-3 0  9997
2 62040  43.0018 141.4033 0001357 263.2112  96.8585 15.27611048 86852
STARLINK-32456          
1 62041U 24216K   26152.06339261  .00025431  00000+0  92976-3 0  9994
2 62041  42.9997 145.7236 0002215 286.8453  73.2156 15.27604501 86626
STARLINK-32509          
1 62042U 24216L   26155.05446865  .00020766  00000+0  76115-3 0  9999
2 62042  43.0036 128.6121 0003236 282.5538  77.4952 15.27615236 87085
STARLINK-32491          
1 62043U 24216M   26152.41377200  .00016343  00000+0  60214-3 0  9992
2 62043  42.9995 150.9735 0001382 275.3124  84.7570 15.27577089 86593
STARLINK-32577          
1 62044U 24216N   26152.05728370  .00020773  00000+0  76204-3 0  9999
2 62044  43.0019 152.6025 0001608 267.0383  93.0285 15.27589667 86557
STARLINK-32618          
1 62045U 24216P   26154.99807376  .00022746  00000+0  83202-3 0  9997
2 62045  42.9983 129.0386 0001173 243.9512 116.1219 15.27640419 87073
STARLINK-32598          
1 62046U 24216Q   26154.42743811  .00028320  00000+0  10327-2 0  9990
2 62046  42.9992 131.6425 0001474 299.0203  61.0501 15.27644621 86991
STARLINK-32630          
1 62047U 24216R   26152.39577921  .00026555  00000+0  97055-3 0  9994
2 62047  43.0010 150.8386 0001850 279.4735  80.5907 15.27596482 86597
STARLINK-32599          
1 62048U 24216S   26155.08048125  .00030873  00000+0  11240-2 0  9992
2 62048  43.0003 135.7245 0001411 242.3338 117.7370 15.27658905 87000
STARLINK-32473          
1 62049U 24216T   26154.92627730  .00020718  00000+0  75985-3 0  9994
2 62049  43.0011 129.3662 0001428 248.5901 111.4798 15.27597782 85901
STARLINK-32492          
1 62050U 24216U   26152.37393685  .00019184  00000+0  70481-3 0  9993
2 62050  43.0016 150.6782 0001251 273.7387  86.3321 15.27582193 86598
STARLINK-32496          
1 62051U 24216V   26155.15615313  .00013880  00000+0  51251-3 0  9999
2 62051  43.0006 135.4350 0001844 280.0087  80.0556 15.27608902 87012
STARLINK-32495          
1 62052U 24216W   26154.38292927  .00021383  00000+0  78339-3 0  9999
2 62052  43.0001 139.0901 0001621 314.3908  45.6810 15.27619186 86909
STARLINK-32494          
1 62053U 24216X   26152.97013069  .00020732  00000+0  75996-3 0  9994
2 62053  42.9982 147.4084 0000942 227.6061 132.4711 15.27615144 86682
STARLINK-32408          
1 62054U 24216Y   26152.43771766  .00018480  00000+0  67921-3 0  9997
2 62054  43.0015 143.3721 0001629 269.2840  90.7825 15.27589103 86693
STARLINK-32571          
1 62055U 24216Z   26152.00428682  .00025913  00000+0  94742-3 0  9997
2 62055  42.9975 145.2720 0002059 288.8517  71.2111 15.27595231 86728
STARLINK-11465 [DTC]    
1 62057U 24217A   26154.75340175  .00154055  00000+0  12468-2 0  9998
2 62057  53.1568   6.7904 0001251 140.5470 219.5639 15.69828653 88695
STARLINK-11426 [DTC]    
1 62058U 24217B   26154.87583441  .00226284  00000+0  18204-2 0  9995
2 62058  53.1561   6.1285 0000823 111.8216 248.2890 15.69733075 88655
