OBJECT_NAME,OBJECT_ID,EPOCH,MEAN_MOTION,ECCENTRICITY,INCLINATION,RA_OF_ASC_NODE,ARG_OF_PERICENTER,MEAN_ANOMALY,EPHEMERIS_TYPE,CLASSIFICATION_TYPE,NORAD_CAT_ID,ELEMENT_SET_NO,REV_AT_EPOCH,BSTAR,MEAN_MOTION_DOT,MEAN_MOTION_DDOT
STARLINK-32493,2024-213T,2026-06-04T02:49:15.455136,15.34405967,.0001544,53.1601,126.2304,100.6053,259.5124,0,U,62025,999,8639,.73647E-3,.24593E-3,0
STARLINK-32561,2024-213U,2026-06-03T05:46:40.279008,15.30215885,.0001421,53.1568,130.7097,137.4561,222.6550,0,U,62026,999,8625,.85442E-3,.25044E-3,0
STARLINK-32512,2024-213V,2026-06-04T01:46:34.279104,15.30212863,.0001477,53.1581,126.6652,117.9506,242.1644,0,U,62027,999,8638,.80564E-3,.23587E-3,0
GSAT-N2 (GSAT-20),2024-214A,2026-06-04T03:37:11.532288,1.00275053,.0002199,0.0214,233.6910,204.1002,297.1527,0,U,62028,999,576,0,-.9E-7,0
STARLINK-32637,2024-216A,2026-06-01T08:11:45.441888,15.27585484,.00019703,43.0012,143.5113,270.5434,89.5192,0,U,62032,999,8667,.69488252E-3,.18912E-3,0
STARLINK-32582,2024-216B,2026-06-02T22:43:46.499808,15.27592133,.00019029,43.0014,141.8463,192.7573,167.3231,0,U,62033,999,8683,.67007235E-3,.18229E-3,0
STARLINK-32615,2024-216C,2026-06-01T09:07:14.793312,15.27613092,.0001869,43.0016,143.8025,282.7746,77.2896,0,U,62034,999,8551,.61874241E-3,.1682E-3,0
STARLINK-32592,2024-216D,2026-06-03T19:44:48.833088,15.27635119,.00020407,43.0001,137.2345,248.0658,111.9977,0,U,62035,999,8697,.9177679E-3,.25122E-3,0
STARLINK-32225,2024-216E,2026-06-01T09:12:48.623904,15.27611408,.00025572,43.0021,143.8354,291.0028,69.0550,0,U,62036,999,8674,.59602368E-3,.16191E-3,0
STARLINK-32595,2024-216F,2026-06-03T10:03:14.942880,15.27603390,.00026844,43.0028,139.3653,262.0142,98.0405,0,U,62037,999,8691,.82592012E-3,.22552E-3,0
STARLINK-32477,2024-216G,2026-06-04T04:00:03.000096,15.67053595,.0024289,42.9872,103.2031,169.4085,237.6938,0,U,62038,999,593,.4999E-2,.597098E-2,0
STARLINK-32480,2024-216H,2026-06-01T01:25:44.050368,15.27595358,.00011387,42.9986,145.6904,239.7479,120.3260,0,U,62039,999,8546,.75866703E-3,.20683E-3,0
STARLINK-32510,2024-216J,2026-06-03T02:49:27.066432,15.27611048,.0001357,43.0018,141.4033,263.2112,96.8585,0,U,62040,999,8685,.76415907E-3,.20845E-3,0
STARLINK-32456,2024-216K,2026-06-01T01:31:17.121504,15.27604501,.00022158,42.9997,145.7236,286.8453,73.2156,0,U,62041,999,8662,.92976024E-3,.25431E-3,0
STARLINK-32509,2024-216L,2026-06-04T01:18:26.091360,15.27615236,.0003236,43.0036,128.6121,282.5538,77.4952,0,U,62042,999,8708,.76115E-3,.20766E-3,0
STARLINK-32491,2024-216M,2026-06-01T09:55:49.900800,15.27577089,.00013824,42.9995,150.9735,275.3124,84.7570,0,U,62043,999,8659,.602139E-3,.16343E-3,0
STARLINK-32577,2024-216N,2026-06-01T01:22:29.311680,15.27589667,.00016085,43.0019,152.6025,267.0383,93.0285,0,U,62044,999,8655,.7620386E-3,.20773E-3,0
STARLINK-32618,2024-216P,2026-06-03T23:57:13.572864,15.27640419,.0001173,42.9983,129.0386,243.9512,116.1219,0,U,62045,999,8707,.83202E-3,.22746E-3,0
STARLINK-32598,2024-216Q,2026-06-03T10:15:30.652704,15.27644621,.00014745,42.9992,131.6425,299.0203,61.0501,0,U,62046,999,8699,.10326543E-2,.2832E-3,0
STARLINK-32630,2024-216R,2026-06-01T09:29:55.323744,15.27596482,.00018508,43.0010,150.8386,279.4735,80.5907,0,U,62047,999,8659,.97055492E-3,.26555E-3,0
STARLINK-32599,2024-216S,2026-06-04T01:55:53.580000,15.27658905,.0001411,43.0003,135.7245,242.3338,117.7370,0,U,62048,999,8700,.1124E-2,.30873E-3,0
STARLINK-32473,2024-216T,2026-06-03T22:13:50.358720,15.27597782,.0001428,43.0011,129.3662,248.5901,111.4798,0,U,62049,999,8590,.75985E-3,.20718E-3,0
STARLINK-32492,2024-216U,2026-06-01T08:58:28.143840,15.27582193,.00012514,43.0016,150.6782,273.7387,86.3321,0,U,62050,999,8659,.70480644E-3,.19184E-3,0
STARLINK-32496,2024-216V,2026-06-04T03:44:51.630432,15.27608902,.0001844,43.0006,135.4350,280.0087,80.0556,0,U,62051,999,8701,.51251E-3,.1388E-3,0
STARLINK-32495,2024-216W,2026-06-03T09:11:25.088928,15.27619186,.00016218,43.0001,139.0901,314.3908,45.6810,0,U,62052,999,8690,.7833896E-3,.21383E-3,0
STARLINK-32494,2024-216X,2026-06-01T23:16:59.291616,15.27615144,.00009424,42.9982,147.4084,227.6061,132.4711,0,U,62053,999,8668,.75995787E-3,.20732E-3,0
STARLINK-32408,2024-216Y,2026-06-01T10:30:18.805824,15.27589103,.00016297,43.0015,143.3721,269.2840,90.7825,0,U,62054,999,8669,.67921399E-3,.1848E-3,0
STARLINK-32571,2024-216Z,2026-06-01T00:06:10.381248,15.27595231,.00020595,42.9975,145.2720,288.8517,71.2111,0,U,62055,999,8672,.94741523E-3,.25913E-3,0
STARLINK-11465 [DTC],2024-217A,2026-06-03T18:04:53.911200,15.69828653,.00012511,53.1568,6.7904,140.5470,219.5639,0,U,62057,999,8869,.12468167E-2,.154055E-2,0
STARLINK-11426 [DTC],2024-217B,2026-06-03T21:01:12.093024,15.69733075,.00008235,53.1561,6.1285,111.8216,248.2890,0,U,62058,999,8865,.18203721E-2,.226284E-2,0
